{"type": "FeatureCollection", "features": [ {"type": "Feature", "properties": {"norad_id": 35583, "name": "COSMOS 2251 DEB", "group": "cosmos-2251-debris", "lat": -26.501812178170745, "lon": 56.10068801653918, "alt_km": 854.543131108453, "timestamp": "2025-12-02T23:34:15.913520+00:00", "meta": {"OBJECT_NAME": "COSMOS 2251 DEB", "OBJECT_ID": "1993-036AMA", "EPOCH": "2025-12-01T09:18:45.701280", "MEAN_MOTION": 13.55311164, "ECCENTRICITY": 0.03859858, "INCLINATION": 73.9177, "RA_OF_ASC_NODE": 230.413, "ARG_OF_PERICENTER": 256.8414, "MEAN_ANOMALY": 98.9367, "EPHEMERIS_TYPE": 0, "CLASSIFICATION_TYPE": "U", "NORAD_CAT_ID": 35583, "ELEMENT_SET_NO": 999, "REV_AT_EPOCH": 82258, "BSTAR": 0.00049161142, "MEAN_MOTION_DOT": 5.24e-06, "MEAN_MOTION_DDOT": 0}, "tle": {"line1": "1 35583U 93036AMA 25335.38802895  .00000524  00000+0  49161-3 0  9990", "line2": "2 35583  73.9177 230.4130 0385985 256.8414  98.9367 13.55311164822588"}}, "geometry": {"type": "Point", "coordinates": [56.10068801653918, -26.501812178170745]}}, {"type": "Feature", "properties": {"norad_id": 35585, "name": "COSMOS 2251 DEB", "group": "cosmos-2251-debris", "lat": -3.354824520636099, "lon": -174.33022829619316, "alt_km": 998.7276749324519, "timestamp": "2025-12-02T23:34:15.913530+00:00", "meta": {"OBJECT_NAME": "COSMOS 2251 DEB", "OBJECT_ID": "1993-036AMC", "EPOCH": "2025-12-02T12:56:40.811136", "MEAN_MOTION": 13.75197617, "ECCENTRICITY": 0.031063, "INCLINATION": 73.9718, "RA_OF_ASC_NODE": 5.4431, "ARG_OF_PERICENTER": 279.6941, "MEAN_ANOMALY": 236.0495, "EPHEMERIS_TYPE": 0, "CLASSIFICATION_TYPE": "U", "NORAD_CAT_ID": 35585, "ELEMENT_SET_NO": 999, "REV_AT_EPOCH": 63923, "BSTAR": 0.0014709, "MEAN_MOTION_DOT": 1.977e-05, "MEAN_MOTION_DDOT": 0}, "tle": {"line1": "1 35585U 93036AMC 25336.53936124  .00001977  00000+0  14709-2 0  9995", "line2": "2 35585  73.9718   5.4431 0310630 279.6941 236.0495 13.75197617639230"}}, "geometry": {"type": "Point", "coordinates": [-174.33022829619316, -3.354824520636099]}}, {"type": "Feature", "properties": {"norad_id": 35586, "name": "COSMOS 2251 DEB", "group": "cosmos-2251-debris", "lat": 69.31291223220714, "lon": 88.75350187022079, "alt_km": 1057.0171344119844, "timestamp": "2025-12-02T23:34:15.913541+00:00", "meta": {"OBJECT_NAME": "COSMOS 2251 DEB", "OBJECT_ID": "1993-036AMD", "EPOCH": "2025-11-30T16:52:48.213120", "MEAN_MOTION": 13.52072818, "ECCENTRICITY": 0.04052263, "INCLINATION": 74.0205, "RA_OF_ASC_NODE": 321.7609, "ARG_OF_PERICENTER": 199.6217, "MEAN_ANOMALY": 340.481, "EPHEMERIS_TYPE": 0, "CLASSIFICATION_TYPE": "U", "NORAD_CAT_ID": 35586, "ELEMENT_SET_NO": 999, "REV_AT_EPOCH": 60219, "BSTAR": 0.00040711043, "MEAN_MOTION_DOT": 4.27e-06, "MEAN_MOTION_DDOT": 0}, "tle": {"line1": "1 35586U 93036AMD 25334.70333580  .00000427  00000+0  40711-3 0  9992", "line2": "2 35586  74.0205 321.7609 0405226 199.6217 340.4810 13.52072818602194"}}, "geometry": {"type": "Point", "coordinates": [88.75350187022079, 69.31291223220714]}}, {"type": "Feature", "properties": {"norad_id": 35587, "name": "COSMOS 2251 DEB", "group": "cosmos-2251-debris", "lat": 68.0911473092815, "lon": -148.07068932614942, "alt_km": 718.1566698773931, "timestamp": "2025-12-02T23:34:15.913551+00:00", "meta": {"OBJECT_NAME": "COSMOS 2251 DEB", "OBJECT_ID": "1993-036AME", "EPOCH": "2025-12-02T00:14:38.667264", "MEAN_MOTION": 14.71451769, "ECCENTRICITY": 0.01027762, "INCLINATION": 74.0046, "RA_OF_ASC_NODE": 79.3207, "ARG_OF_PERICENTER": 269.3108, "MEAN_ANOMALY": 89.6286, "EPHEMERIS_TYPE": 0, "CLASSIFICATION_TYPE": "U", "NORAD_CAT_ID": 35587, "ELEMENT_SET_NO": 999, "REV_AT_EPOCH": 66188, "BSTAR": 0.00036359262, "MEAN_MOTION_DOT": 2.411e-05, "MEAN_MOTION_DDOT": 0}, "tle": {"line1": "1 35587U 93036AME 25336.01016976  .00002411  00000+0  36359-3 0  9994", "line2": "2 35587  74.0046  79.3207 0102776 269.3108  89.6286 14.71451769661884"}}, "geometry": {"type": "Point", "coordinates": [-148.07068932614942, 68.0911473092815]}}, {"type": "Feature", "properties": {"norad_id": 35593, "name": "COSMOS 2251 DEB", "group": "cosmos-2251-debris", "lat": 47.88291977977499, "lon": -35.59160032846378, "alt_km": 809.1603387087534, "timestamp": "2025-12-02T23:34:15.913561+00:00", "meta": {"OBJECT_NAME": "COSMOS 2251 DEB", "OBJECT_ID": "1993-036AML", "EPOCH": "2025-12-02T08:10:41.645856", "MEAN_MOTION": 14.25498697, "ECCENTRICITY": 0.0105349, "INCLINATION": 74.0851, "RA_OF_ASC_NODE": 307.1662, "ARG_OF_PERICENTER": 315.9582, "MEAN_ANOMALY": 43.3207, "EPHEMERIS_TYPE": 0, "CLASSIFICATION_TYPE": "U", "NORAD_CAT_ID": 35593, "ELEMENT_SET_NO": 999, "REV_AT_EPOCH": 84917, "BSTAR": 0.0018162, "MEAN_MOTION_DOT": 4.526e-05, "MEAN_MOTION_DDOT": 0}, "tle": {"line1": "1 35593U 93036AML 25336.34075979  .00004526  00000+0  18162-2 0  9995", "line2": "2 35593  74.0851 307.1662 0105349 315.9582  43.3207 14.25498697849175"}}, "geometry": {"type": "Point", "coordinates": [-35.59160032846378, 47.88291977977499]}}, {"type": "Feature", "properties": {"norad_id": 35594, "name": "COSMOS 2251 DEB", "group": "cosmos-2251-debris", "lat": -27.398460246172487, "lon": 117.6013306107522, "alt_km": 613.0760324054527, "timestamp": "2025-12-02T23:34:15.913572+00:00", "meta": {"OBJECT_NAME": "COSMOS 2251 DEB", "OBJECT_ID": "1993-036AMM", "EPOCH": "2025-12-01T02:30:04.449024", "MEAN_MOTION": 14.8736155, "ECCENTRICITY": 0.00313469, "INCLINATION": 73.8065, "RA_OF_ASC_NODE": 130.0573, "ARG_OF_PERICENTER": 241.1394, "MEAN_ANOMALY": 118.6638, "EPHEMERIS_TYPE": 0, "CLASSIFICATION_TYPE": "U", "NORAD_CAT_ID": 35594, "ELEMENT_SET_NO": 999, "REV_AT_EPOCH": 88012, "BSTAR": 0.00176297, "MEAN_MOTION_DOT": 0.00016075, "MEAN_MOTION_DDOT": 0}, "tle": {"line1": "1 35594U 93036AMM 25335.10421816  .00016075  00000+0  17630-2 0  9995", "line2": "2 35594  73.8065 130.0573 0031346 241.1394 118.6638 14.87361550880129"}}, "geometry": {"type": "Point", "coordinates": [117.6013306107522, -27.398460246172487]}}, {"type": "Feature", "properties": {"norad_id": 35602, "name": "COSMOS 2251 DEB", "group": "cosmos-2251-debris", "lat": -44.78087109588532, "lon": 39.73987400847399, "alt_km": 423.6380189096999, "timestamp": "2025-12-02T23:34:15.913582+00:00", "meta": {"OBJECT_NAME": "COSMOS 2251 DEB", "OBJECT_ID": "1993-036AMV", "EPOCH": "2025-12-02T09:15:51.725376", "MEAN_MOTION": 15.34546363, "ECCENTRICITY": 0.0091028, "INCLINATION": 73.9953, "RA_OF_ASC_NODE": 204.4704, "ARG_OF_PERICENTER": 272.601, "MEAN_ANOMALY": 263.4266, "EPHEMERIS_TYPE": 0, "CLASSIFICATION_TYPE": "U", "NORAD_CAT_ID": 35602, "ELEMENT_SET_NO": 999, "REV_AT_EPOCH": 89932, "BSTAR": 0.0005235, "MEAN_MOTION_DOT": 0.00020068, "MEAN_MOTION_DDOT": 0}, "tle": {"line1": "1 35602U 93036AMV 25336.38601534  .00020068  00000+0  52350-3 0  9999", "line2": "2 35602  73.9953 204.4704 0091028 272.6010 263.4266 15.34546363899323"}}, "geometry": {"type": "Point", "coordinates": [39.73987400847399, -44.78087109588532]}}, {"type": "Feature", "properties": {"norad_id": 35605, "name": "COSMOS 2251 DEB", "group": "cosmos-2251-debris", "lat": 35.47342354245638, "lon": 9.551472704625143, "alt_km": 481.7435734693281, "timestamp": "2025-12-02T23:34:15.913593+00:00", "meta": {"OBJECT_NAME": "COSMOS 2251 DEB", "OBJECT_ID": "1993-036AMY", "EPOCH": "2025-11-25T09:05:01.395168", "MEAN_MOTION": 15.26251894, "ECCENTRICITY": 0.00343964, "INCLINATION": 73.8732, "RA_OF_ASC_NODE": 13.9291, "ARG_OF_PERICENTER": 311.4103, "MEAN_ANOMALY": 48.4141, "EPHEMERIS_TYPE": 0, "CLASSIFICATION_TYPE": "U", "NORAD_CAT_ID": 35605, "ELEMENT_SET_NO": 999, "REV_AT_EPOCH": 65706, "BSTAR": 0.0065174874, "MEAN_MOTION_DOT": 0.00175767, "MEAN_MOTION_DDOT": 0}, "tle": {"line1": "1 35605U 93036AMY 25329.37848837  .00175767  00000+0  65175-2 0  9997", "line2": "2 35605  73.8732  13.9291 0034396 311.4103  48.4141 15.26251894657063"}}, "geometry": {"type": "Point", "coordinates": [9.551472704625143, 35.47342354245638]}}, {"type": "Feature", "properties": {"norad_id": 35606, "name": "COSMOS 2251 DEB", "group": "cosmos-2251-debris", "lat": -73.80159688959117, "lon": -63.22938967143519, "alt_km": 831.5271455488264, "timestamp": "2025-12-02T23:34:15.913602+00:00", "meta": {"OBJECT_NAME": "COSMOS 2251 DEB", "OBJECT_ID": "1993-036AMZ", "EPOCH": "2025-12-01T13:59:58.207776", "MEAN_MOTION": 13.41178531, "ECCENTRICITY": 0.04578452, "INCLINATION": 73.8111, "RA_OF_ASC_NODE": 28.5794, "ARG_OF_PERICENTER": 235.9208, "MEAN_ANOMALY": 119.7645, "EPHEMERIS_TYPE": 0, "CLASSIFICATION_TYPE": "U", "NORAD_CAT_ID": 35606, "ELEMENT_SET_NO": 999, "REV_AT_EPOCH": 60890, "BSTAR": 0.0014608258, "MEAN_MOTION_DOT": 1.479e-05, "MEAN_MOTION_DDOT": 0}, "tle": {"line1": "1 35606U 93036AMZ 25335.58331259  .00001479  00000+0  14608-2 0  9996", "line2": "2 35606  73.8111  28.5794 0457845 235.9208 119.7645 13.41178531608900"}}, "geometry": {"type": "Point", "coordinates": [-63.22938967143519, -73.80159688959117]}}, {"type": "Feature", "properties": {"norad_id": 35611, "name": "COSMOS 2251 DEB", "group": "cosmos-2251-debris", "lat": 71.92437238012985, "lon": -43.070325974331546, "alt_km": 661.7541478763833, "timestamp": "2025-12-02T23:34:15.913612+00:00", "meta": {"OBJECT_NAME": "COSMOS 2251 DEB", "OBJECT_ID": "1993-036ANE", "EPOCH": "2025-12-01T14:30:37.941120", "MEAN_MOTION": 14.72378528, "ECCENTRICITY": 0.00224128, "INCLINATION": 74.0218, "RA_OF_ASC_NODE": 201.0005, "ARG_OF_PERICENTER": 275.1179, "MEAN_ANOMALY": 84.7435, "EPHEMERIS_TYPE": 0, "CLASSIFICATION_TYPE": "U", "NORAD_CAT_ID": 35611, "ELEMENT_SET_NO": 999, "REV_AT_EPOCH": 87126, "BSTAR": 0.0019124254, "MEAN_MOTION_DOT": 0.00012147, "MEAN_MOTION_DDOT": 0}, "tle": {"line1": "1 35611U 93036ANE 25335.60460580  .00012147  00000+0  19124-2 0  9997", "line2": "2 35611  74.0218 201.0005 0022412 275.1179  84.7435 14.72378528871263"}}, "geometry": {"type": "Point", "coordinates": [-43.070325974331546, 71.92437238012985]}}]}